OBJECT_NAME,OBJECT_ID,EPOCH,MEAN_MOTION,ECCENTRICITY,INCLINATION,RA_OF_ASC_NODE,ARG_OF_PERICENTER,MEAN_ANOMALY,EPHEMERIS_TYPE,CLASSIFICATION_TYPE,NORAD_CAT_ID,ELEMENT_SET_NO,REV_AT_EPOCH,BSTAR,MEAN_MOTION_DOT,MEAN_MOTION_DDOT
STARLINK-30437,2023-156J,2026-05-16T04:39:33.015168,15.30196758,.00012181,53.1602,124.6430,87.4298,272.6842,0,U,58036,999,14660,.21229065E-4,.27E-5,0
STARLINK-30533,2023-156K,2026-05-15T15:30:20.546496,15.30196115,.00010203,53.1581,217.1948,87.4811,272.6306,0,U,58037,999,14528,.25233847E-3,.7121E-4,0
STARLINK-30560,2023-156L,2026-05-16T05:02:56.405184,15.30192039,.00012654,53.1597,121.9007,95.8605,264.2540,0,U,58038,999,14664,.12659862E-4,.16E-6,0
STARLINK-30555,2023-156N,2026-05-16T06:00:02.000160,15.33529706,.00015846,53.1596,214.3080,92.3016,48.0044,0,U,58040,999,581,.97209454E-3,.31713E-3,0
STARLINK-30542,2023-156P,2026-05-16T05:55:24.212928,15.30199001,.00012091,53.1598,124.4326,82.7046,277.4092,0,U,58041,999,14665,.22626941E-4,.311E-5,0
STARLINK-30563,2023-156Q,2026-05-16T05:53:02.926464,15.30199692,.00011981,53.1601,121.9669,84.5458,275.5680,0,U,58042,999,14669,.50676021E-4,.1142E-4,0
STARLINK-30564,2023-156R,2026-05-16T05:40:17.577984,15.30239045,.00016423,53.1577,124.7328,144.8319,215.2790,0,U,58043,999,14665,.41194089E-2,.123845E-2,0
STARLINK-30547,2023-156S,2026-05-15T10:52:44.323392,15.30191618,.00009898,53.1593,218.0976,79.9036,280.2076,0,U,58044,999,14525,-.9827845E-5,-.65E-5,0
STARLINK-30550,2023-156T,2026-05-16T05:05:04.448256,15.30202809,.00014395,53.1606,47.7176,71.5288,288.5870,0,U,58045,999,14771,.49047459E-4,.1094E-4,0
STARLINK-30548,2023-156U,2026-05-15T15:09:33.452352,15.33532373,.00010345,53.1604,217.1283,77.6928,282.4190,0,U,58046,999,14523,-.52343348E-4,-.2093E-4,0
STARLINK-30529,2023-156V,2026-05-16T06:13:17.567040,15.30180641,.00009362,53.1576,214.6238,110.2095,249.9006,0,U,58047,999,14532,.64855978E-4,.1561E-4,0
STARLINK-30554,2023-156W,2026-05-15T15:06:01.974528,15.30192125,.00010519,53.1600,217.1095,79.1692,280.9427,0,U,58048,999,14523,.7441663E-5,-.139E-5,0
STARLINK-30568,2023-158A,2026-05-15T16:48:38.978496,15.27584474,.00013345,43.0049,9.0143,259.3356,100.7345,0,U,58051,999,14380,.3860851E-4,.801E-5,0
STARLINK-30575,2023-158B,2026-05-15T16:43:06.759264,15.27580691,.00013743,43.0054,8.9926,285.5030,74.5670,0,U,58052,999,14381,.3591783E-4,.726E-5,0
STARLINK-30577,2023-158C,2026-05-15T22:13:28.887456,15.27577751,.00007774,43.0014,7.2500,267.6437,92.4325,0,U,58053,999,14385,.13477911E-4,.109E-5,0
STARLINK-30566,2023-158D,2026-05-15T15:45:45.570816,15.27393543,.00005337,42.9980,8.6920,232.2867,127.7936,0,U,58054,999,14381,-.31723089E-2,-.86057E-3,0
STARLINK-30544,2023-158E,2026-05-14T15:56:44.617920,15.27577389,.00016298,43.0048,14.1453,256.0853,103.9817,0,U,58055,999,14366,.96957223E-4,.2406E-4,0
STARLINK-30553,2023-158F,2026-05-15T20:31:56.655840,15.27560038,.0003895,43.0339,7.6407,304.6480,55.4522,0,U,58056,999,14384,0,-.9948E-4,0
STARLINK-30541,2023-158G,2026-05-14T20:50:19.584672,15.27577423,.00014921,43.0025,13.0963,263.0579,97.0103,0,U,58057,999,14369,.16453911E-4,.191E-5,0
STARLINK-30573,2023-158H,2026-05-15T22:11:37.991328,15.27579489,.00014625,43.0019,7.2570,264.7669,95.3016,0,U,58058,999,14385,.55705686E-4,.1271E-4,0
STARLINK-30582,2023-158J,2026-05-16T00:48:29.284992,15.27580088,.00016639,43.0057,6.3624,261.0690,98.9973,0,U,58059,999,14387,.1595873E-4,.177E-5,0
STARLINK-30558,2023-158K,2026-05-15T16:32:00.630816,15.27577796,.00013482,43.0062,8.9142,258.7225,101.3475,0,U,58060,999,14381,.75265517E-4,.1809E-4,0
STARLINK-30579,2023-158L,2026-05-16T06:51:14.146560,15.27571433,.00031055,43.0077,339.5023,265.6908,94.3589,0,U,58061,999,14420,-.44245863E-4,-.148E-4,0
STARLINK-30588,2023-158M,2026-05-15T22:17:10.729824,15.27584906,.00012361,43.0012,7.2831,276.0347,84.0364,0,U,58062,999,14385,.18738504E-3,.4899E-4,0
STARLINK-30585,2023-158N,2026-05-15T17:45:48.661920,15.27581436,.00014836,43.0055,8.4508,273.6151,86.4531,0,U,58063,999,14382,.61433719E-4,.1429E-4,0
STARLINK-30587,2023-158P,2026-05-15T15:34:39.133920,15.27578074,.00015447,43.0022,8.6337,267.2719,92.7956,0,U,58064,999,14381,.29791344E-4,.558E-5,0
STARLINK-30576,2023-158Q,2026-05-15T23:53:11.598432,15.27575987,.00012259,43.0050,6.9323,262.0894,97.9819,0,U,58065,999,14386,.25317593E-4,.435E-5,0
STARLINK-30571,2023-158R,2026-05-15T16:26:27.781728,15.27583909,.00014809,43.0040,8.8926,264.3576,95.7107,0,U,58066,999,14381,-.47387842E-4,-.1566E-4,0
STARLINK-30567,2023-158S,2026-05-15T16:37:35.232960,15.27571115,.00014553,43.0071,8.9438,322.0452,38.0297,0,U,58067,999,14381,.46205127E-4,.1009E-4,0
STARLINK-30569,2023-158T,2026-05-15T22:22:01.471008,15.27579763,.00014363,43.0033,10.7152,267.8966,92.1721,0,U,58068,999,14381,.60572984E-4,.1405E-4,0
