STARLINK-30437          
1 58036U 23156J   26136.19413212  .00000270  00000+0  21229-4 0  9998
2 58036  53.1602 124.6430 0001218  87.4298 272.6842 15.30196758146604
STARLINK-30533          
1 58037U 23156K   26135.64607114  .00007121  00000+0  25234-3 0  9995
2 58037  53.1581 217.1948 0001020  87.4811 272.6306 15.30196115145280
STARLINK-30560          
1 58038U 23156L   26136.21037506  .00000016  00000+0  12660-4 0  9998
2 58038  53.1597 121.9007 0001265  95.8605 264.2540 15.30192039146640
STARLINK-30555          
1 58040U 23156N   26136.25002315  .00031713  00000+0  97209-3 0  9994
2 58040  53.1596 214.3080 0001584  92.3016  48.0044 15.33529706  5810
STARLINK-30542          
1 58041U 23156P   26136.24680802  .00000311  00000+0  22627-4 0  9990
2 58041  53.1598 124.4326 0001209  82.7046 277.4092 15.30199001146654
STARLINK-30563          
1 58042U 23156Q   26136.24517276  .00001142  00000+0  50676-4 0  9993
2 58042  53.1601 121.9669 0001198  84.5458 275.5680 15.30199692146698
STARLINK-30564          
1 58043U 23156R   26136.23631456  .00123845  00000+0  41194-2 0  9998
2 58043  53.1577 124.7328 0001642 144.8319 215.2790 15.30239045146650
STARLINK-30547          
1 58044U 23156S   26135.45329078 -.00000650  00000+0 -98278-5 0  9994
2 58044  53.1593 218.0976 0000989  79.9036 280.2076 15.30191618145259
STARLINK-30550          
1 58045U 23156T   26136.21185704  .00001094  00000+0  49047-4 0  9996
2 58045  53.1606  47.7176 0001439  71.5288 288.5870 15.30202809147713
STARLINK-30548          
1 58046U 23156U   26135.63163718 -.00002093  00000+0 -52343-4 0  9998
2 58046  53.1604 217.1283 0001034  77.6928 282.4190 15.33532373145231
STARLINK-30529          
1 58047U 23156V   26136.25923110  .00001561  00000+0  64856-4 0  9997
2 58047  53.1576 214.6238 0000936 110.2095 249.9006 15.30180641145329
STARLINK-30554          
1 58048U 23156W   26135.62918952 -.00000139  00000+0  74417-5 0  9992
2 58048  53.1600 217.1095 0001051  79.1692 280.9427 15.30192125145234
STARLINK-30568          
1 58051U 23158A   26135.70045114  .00000801  00000+0  38609-4 0  9995
2 58051  43.0049   9.0143 0001334 259.3356 100.7345 15.27584474143805
STARLINK-30575          
1 58052U 23158B   26135.69660601  .00000726  00000+0  35918-4 0  9994
2 58052  43.0054   8.9926 0001374 285.5030  74.5670 15.27580691143810
STARLINK-30577          
1 58053U 23158C   26135.92602879  .00000109  00000+0  13478-4 0  9996
2 58053  43.0014   7.2500 0000777 267.6437  92.4325 15.27577751143858
STARLINK-30566          
1 58054U 23158D   26135.65677744 -.00086057  00000+0 -31723-2 0  9999
2 58054  42.9980   8.6920 0000533 232.2867 127.7936 15.27393543143816
STARLINK-30544          
1 58055U 23158E   26134.66440530  .00002406  00000+0  96957-4 0  9997
2 58055  43.0048  14.1453 0001629 256.0853 103.9817 15.27577389143662
STARLINK-30553          
1 58056U 23158F   26135.85551685 -.00009948  00000+0  00000+0 0  9992
2 58056  43.0339   7.6407 0003895 304.6480  55.4522 15.27560038143842
STARLINK-30541          
1 58057U 23158G   26134.86828223  .00000191  00000+0  16454-4 0  9993
2 58057  43.0025  13.0963 0001492 263.0579  97.0103 15.27577423143697
STARLINK-30573          
1 58058U 23158H   26135.92474527  .00001271  00000+0  55706-4 0  9999
2 58058  43.0019   7.2570 0001462 264.7669  95.3016 15.27579489143851
STARLINK-30582          
1 58059U 23158J   26136.03367228  .00000177  00000+0  15959-4 0  9992
2 58059  43.0057   6.3624 0001663 261.0690  98.9973 15.27580088143871
STARLINK-30558          
1 58060U 23158K   26135.68889619  .00001809  00000+0  75266-4 0  9997
2 58060  43.0062   8.9142 0001348 258.7225 101.3475 15.27577796143811
STARLINK-30579          
1 58061U 23158L   26136.28558040 -.00001480  00000+0 -44246-4 0  9997
2 58061  43.0077 339.5023 0003105 265.6908  94.3589 15.27571433144200
STARLINK-30588          
1 58062U 23158M   26135.92859641  .00004899  00000+0  18739-3 0  9991
2 58062  43.0012   7.2831 0001236 276.0347  84.0364 15.27584906143858
STARLINK-30585          
1 58063U 23158N   26135.74014655  .00001429  00000+0  61434-4 0  9997
2 58063  43.0055   8.4508 0001483 273.6151  86.4531 15.27581436143824
STARLINK-30587          
1 58064U 23158P   26135.64906405  .00000558  00000+0  29791-4 0  9992
2 58064  43.0022   8.6337 0001544 267.2719  92.7956 15.27578074143812
STARLINK-30576          
1 58065U 23158Q   26135.99527313  .00000435  00000+0  25318-4 0  9993
2 58065  43.0050   6.9323 0001225 262.0894  97.9819 15.27575987143863
STARLINK-30571          
1 58066U 23158R   26135.68504377 -.00001566  00000+0 -47388-4 0  9994
2 58066  43.0040   8.8926 0001480 264.3576  95.7107 15.27583909143812
STARLINK-30567          
1 58067U 23158S   26135.69276890  .00001009  00000+0  46205-4 0  9999
2 58067  43.0071   8.9438 0001455 322.0452  38.0297 15.27571115143819
STARLINK-30569          
1 58068U 23158T   26135.93196147  .00001405  00000+0  60573-4 0  9997
2 58068  43.0033  10.7152 0001436 267.8966  92.1721 15.27579763143817
